start=new Date('2023-03-26T00:00:00.000Z').valueOf();
sats=[{"CLASSIFICATION_TYPE":"U","MEAN_MOTION":"15.06416194","PERIAPSIS":"546.237","FILE":"3871104","RCS_SIZE":"LARGE","CENTER_NAME":"EARTH","SITE":"AFETR","REV_AT_EPOCH":"10137","BSTAR":"0.00175170000000","TIME_SYSTEM":"UTC","MEAN_ELEMENT_THEORY":"SGP4","MEAN_ANOMALY":"256.1975","OBJECT_NAME":"STARLINK-2753","EPHEMERIS_TYPE":"0","NORAD_CAT_ID":"48696","SEMIMAJOR_AXIS":"6925.299","COUNTRY_CODE":"US","OBJECT_ID":"2021-044BL","ELEMENT_SET_NO":"999","EPOCH":"2023-03-25T20:23:24.521568","ARG_OF_PERICENTER":"103.9163","DECAY_DATE":null,"MEAN_MOTION_DDOT":"0.0000000000000","TLE_LINE2":"2 48696  53.0518 259.2585 0001339 103.9163 256.1975 15.06416194101376","LAUNCH_DATE":"2021-05-26","RA_OF_ASC_NODE":"259.2585","INCLINATION":"53.0518","TLE_LINE1":"1 48696U 21044BL  23084.84958937  .00025918  00000-0  17517-2 0  9992","GP_ID":"228870643","REF_FRAME":"TEME","APOAPSIS":"548.091","PERIOD":"95.591","ECCENTRICITY":"0.00013390","OBJECT_TYPE":"PAYLOAD","MEAN_MOTION_DOT":"0.00025918"},{"ECCENTRICITY":"0.00011510","PERIOD":"95.595","APOAPSIS":"548.149","OBJECT_TYPE":"PAYLOAD","MEAN_MOTION_DOT":"0.00022232","GP_ID":"228869391","TLE_LINE1":"1 48697U 21044BM  23084.74641073  .00022232  00000-0  15085-2 0  9996","RA_OF_ASC_NODE":"259.6856","INCLINATION":"53.0515","REF_FRAME":"TEME","MEAN_MOTION_DDOT":"0.0000000000000","LAUNCH_DATE":"2021-05-26","TLE_LINE2":"2 48697  53.0515 259.6856 0001151  69.2788 290.8324 15.06354950101350","ELEMENT_SET_NO":"999","OBJECT_ID":"2021-044BM","DECAY_DATE":null,"EPOCH":"2023-03-25T17:54:49.887072","ARG_OF_PERICENTER":"69.2788","SEMIMAJOR_AXIS":"6925.487","NORAD_CAT_ID":"48697","COUNTRY_CODE":"US","EPHEMERIS_TYPE":"0","OBJECT_NAME":"STARLINK-2715","MEAN_ANOMALY":"290.8324","REV_AT_EPOCH":"10135","SITE":"AFETR","MEAN_ELEMENT_THEORY":"SGP4","TIME_SYSTEM":"UTC","BSTAR":"0.00150850000000","RCS_SIZE":"LARGE","FILE":"3871104","PERIAPSIS":"546.555","CLASSIFICATION_TYPE":"U","MEAN_MOTION":"15.06354950","CENTER_NAME":"EARTH"},{"NORAD_CAT_ID":"48879","SEMIMAJOR_AXIS":"6938.648","COUNTRY_CODE":"US","EPHEMERIS_TYPE":"0","OBJECT_NAME":"STARLINK-3003","MEAN_ANOMALY":"276.8486","SITE":"AFETR","REV_AT_EPOCH":"9679","TIME_SYSTEM":"UTC","MEAN_ELEMENT_THEORY":"SGP4","BSTAR":"0.00140920000000","RCS_SIZE":"LARGE","FILE":"3871104","PERIAPSIS":"559.472","MEAN_MOTION":"15.02070917","CLASSIFICATION_TYPE":"U","CENTER_NAME":"EARTH","PERIOD":"95.868","ECCENTRICITY":"0.00015010","APOAPSIS":"561.555","OBJECT_TYPE":"PAYLOAD","MEAN_MOTION_DOT":"0.00018480","GP_ID":"228870662","TLE_LINE1":"1 48879U 21059A   23084.93973009  .00018480  00000-0  14092-2 0  9999","RA_OF_ASC_NODE":"211.9761","INCLINATION":"97.5123","REF_FRAME":"TEME","MEAN_MOTION_DDOT":"0.0000000000000","LAUNCH_DATE":"2021-06-30","TLE_LINE2":"2 48879  97.5123 211.9761 0001501  83.2909 276.8486 15.02070917 96794","ELEMENT_SET_NO":"999","OBJECT_ID":"2021-059A","DECAY_DATE":null,"ARG_OF_PERICENTER":"83.2909","EPOCH":"2023-03-25T22:33:12.679776"},{"OBJECT_TYPE":"PAYLOAD","MEAN_MOTION_DOT":"0.00026046","APOAPSIS":"561.615","ECCENTRICITY":"0.00016210","PERIOD":"95.867","REF_FRAME":"TEME","TLE_LINE1":"1 48880U 21059B   23084.93801240  .00026046  00000-0  19818-2 0  9996","INCLINATION":"97.5122","RA_OF_ASC_NODE":"211.9723","GP_ID":"228869410","TLE_LINE2":"2 48880  97.5122 211.9723 0001621  78.1936 281.9470 15.02078595 96799","LAUNCH_DATE":"2021-06-30","MEAN_MOTION_DDOT":"0.0000000000000","ARG_OF_PERICENTER":"78.1936","EPOCH":"2023-03-25T22:30:44.271360","DECAY_DATE":null,"OBJECT_ID":"2021-059B","ELEMENT_SET_NO":"999","COUNTRY_CODE":"US","NORAD_CAT_ID":"48880","SEMIMAJOR_AXIS":"6938.625","OBJECT_NAME":"STARLINK-3004","MEAN_ANOMALY":"281.9470","EPHEMERIS_TYPE":"0","BSTAR":"0.00198180000000","TIME_SYSTEM":"UTC","MEAN_ELEMENT_THEORY":"SGP4","SITE":"AFETR","REV_AT_EPOCH":"9679","CENTER_NAME":"EARTH","MEAN_MOTION":"15.02078595","CLASSIFICATION_TYPE":"U","FILE":"3871104","RCS_SIZE":"LARGE","PERIAPSIS":"559.365"},{"TLE_LINE1":"1 48881U 21059C   23084.93373764  .00005223  00000-0  40197-3 0  9991","RA_OF_ASC_NODE":"211.9986","INCLINATION":"97.5116","GP_ID":"228869660","REF_FRAME":"TEME","APOAPSIS":"561.717","ECCENTRICITY":"0.00018010","PERIOD":"95.867","MEAN_MOTION_DOT":"0.00005223","OBJECT_TYPE":"PAYLOAD","OBJECT_ID":"2021-059C","ELEMENT_SET_NO":"999","EPOCH":"2023-03-25T22:24:34.932096","ARG_OF_PERICENTER":"107.7621","DECAY_DATE":null,"MEAN_MOTION_DDOT":"0.0000000000000","TLE_LINE2":"2 48881  97.5116 211.9986 0001801 107.7621 252.3801 15.02085895 96795","LAUNCH_DATE":"2021-06-30","OBJECT_NAME":"STARLINK-3005","MEAN_ANOMALY":"252.3801","EPHEMERIS_TYPE":"0","SEMIMAJOR_AXIS":"6938.602","NORAD_CAT_ID":"48881","COUNTRY_CODE":"US","CLASSIFICATION_TYPE":"U","MEAN_MOTION":"15.02085895","RCS_SIZE":"LARGE","FILE":"3871104","PERIAPSIS":"559.218","CENTER_NAME":"EARTH","REV_AT_EPOCH":"9679","SITE":"AFETR","BSTAR":"0.00040197000000","MEAN_ELEMENT_THEORY":"SGP4","TIME_SYSTEM":"UTC"},{"MEAN_MOTION_DDOT":"0.0000000000000","LAUNCH_DATE":"2021-09-14","TLE_LINE2":"2 49131  69.9988  98.1240 0002924 267.2920  92.7904 14.98324370 85159","ELEMENT_SET_NO":"999","OBJECT_ID":"2021-082B","DECAY_DATE":null,"ARG_OF_PERICENTER":"267.2920","EPOCH":"2023-03-25T10:48:53.989632","ECCENTRICITY":"0.00029240","PERIOD":"96.107","APOAPSIS":"574.108","OBJECT_TYPE":"PAYLOAD","MEAN_MOTION_DOT":"-0.00000320","GP_ID":"228869436","INCLINATION":"69.9988","RA_OF_ASC_NODE":"98.1240","TLE_LINE1":"1 49131U 21082B   23084.45062488 -.00000320  00000-0 -18998-4 0  9991","REF_FRAME":"TEME","SITE":"AFWTR","REV_AT_EPOCH":"8515","TIME_SYSTEM":"UTC","MEAN_ELEMENT_THEORY":"SGP4","BSTAR":"-0.00001899800000","PERIAPSIS":"570.043","RCS_SIZE":"LARGE","FILE":"3871104","CLASSIFICATION_TYPE":"U","MEAN_MOTION":"14.98324370","CENTER_NAME":"EARTH","SEMIMAJOR_AXIS":"6950.210","NORAD_CAT_ID":"49131","COUNTRY_CODE":"US","EPHEMERIS_TYPE":"0","MEAN_ANOMALY":"92.7904","OBJECT_NAME":"STARLINK-3096"},{"MEAN_MOTION_DDOT":"0.0000000000000","TLE_LINE2":"2 49132  69.9999 137.8755 0003051 270.9617  89.1192 14.98302167 84181","LAUNCH_DATE":"2021-09-14","OBJECT_ID":"2021-082C","ELEMENT_SET_NO":"999","EPOCH":"2023-03-25T13:12:16.008192","ARG_OF_PERICENTER":"270.9617","DECAY_DATE":null,"APOAPSIS":"574.264","ECCENTRICITY":"0.00030510","PERIOD":"96.109","MEAN_MOTION_DOT":"-0.00003825","OBJECT_TYPE":"PAYLOAD","TLE_LINE1":"1 49132U 21082C   23084.55018528 -.00003825  00000-0 -31318-3 0  9992","RA_OF_ASC_NODE":"137.8755","INCLINATION":"69.9999","GP_ID":"228869686","REF_FRAME":"TEME","SITE":"AFWTR","REV_AT_EPOCH":"8418","BSTAR":"-0.00031318000000","MEAN_ELEMENT_THEORY":"SGP4","TIME_SYSTEM":"UTC","CLASSIFICATION_TYPE":"U","MEAN_MOTION":"14.98302167","FILE":"3871104","RCS_SIZE":"LARGE","PERIAPSIS":"570.023","CENTER_NAME":"EARTH","SEMIMAJOR_AXIS":"6950.279","NORAD_CAT_ID":"49132","COUNTRY_CODE":"US","OBJECT_NAME":"STARLINK-3090","MEAN_ANOMALY":"89.1192","EPHEMERIS_TYPE":"0"},{"OBJECT_NAME":"STARLINK-3077","MEAN_ANOMALY":"73.9556","EPHEMERIS_TYPE":"0","COUNTRY_CODE":"US","NORAD_CAT_ID":"49133","SEMIMAJOR_AXIS":"6951.592","CENTER_NAME":"EARTH","MEAN_MOTION":"14.97877828","CLASSIFICATION_TYPE":"U","RCS_SIZE":"LARGE","FILE":"3871041","PERIAPSIS":"571.721","BSTAR":"-0.00875840000000","MEAN_ELEMENT_THEORY":"SGP4","TIME_SYSTEM":"UTC","REV_AT_EPOCH":"8423","SITE":"AFWTR","REF_FRAME":"TEME","TLE_LINE1":"1 49133U 21082D   23084.87947606 -.00101891  00000-0 -87584-2 0  9993","INCLINATION":"70.0013","RA_OF_ASC_NODE":"137.0452","GP_ID":"228847775","MEAN_MOTION_DOT":"-0.00101891","OBJECT_TYPE":"PAYLOAD","APOAPSIS":"575.192","ECCENTRICITY":"0.00024970","PERIOD":"96.136","ARG_OF_PERICENTER":"286.1328","EPOCH":"2023-03-25T21:06:26.731584","DECAY_DATE":null,"OBJECT_ID":"2021-082D","ELEMENT_SET_NO":"999","TLE_LINE2":"2 49133  70.0013 137.0452 0002497 286.1328  73.9556 14.97877828 84230","LAUNCH_DATE":"2021-09-14","MEAN_MOTION_DDOT":"0.0000000000000"},{"MEAN_MOTION":"14.98300219","CLASSIFICATION_TYPE":"U","PERIAPSIS":"570.048","FILE":"3871104","RCS_SIZE":"LARGE","CENTER_NAME":"EARTH","SITE":"AFWTR","REV_AT_EPOCH":"8543","BSTAR":"0.00000814180000","TIME_SYSTEM":"UTC","MEAN_ELEMENT_THEORY":"SGP4","MEAN_ANOMALY":"93.9104","OBJECT_NAME":"STARLINK-3078","EPHEMERIS_TYPE":"0","SEMIMAJOR_AXIS":"6950.285","NORAD_CAT_ID":"49134","COUNTRY_CODE":"US","OBJECT_ID":"2021-082E","ELEMENT_SET_NO":"999","ARG_OF_PERICENTER":"266.1709","EPOCH":"2023-03-25T20:59:11.313600","DECAY_DATE":null,"MEAN_MOTION_DDOT":"0.0000000000000","TLE_LINE2":"2 49134  69.9998 137.0543 0003024 266.1709  93.9104 14.98300219 85439","LAUNCH_DATE":"2021-09-14","INCLINATION":"69.9998","RA_OF_ASC_NODE":"137.0543","TLE_LINE1":"1 49134U 21082E   23084.87443650  .00000004  00000-0  81418-5 0  9999","GP_ID":"228871189","REF_FRAME":"TEME","APOAPSIS":"574.252","ECCENTRICITY":"0.00030240","PERIOD":"96.109","OBJECT_TYPE":"PAYLOAD","MEAN_MOTION_DOT":"0.00000004"},{"REF_FRAME":"TEME","GP_ID":"228869937","INCLINATION":"69.9989","RA_OF_ASC_NODE":"97.2854","TLE_LINE1":"1 49135U 21082F   23084.78170607 -.00000017  00000-0  64013-5 0  9996","OBJECT_TYPE":"PAYLOAD","MEAN_MOTION_DOT":"-0.00000017","PERIOD":"96.107","ECCENTRICITY":"0.00028670","APOAPSIS":"574.062","DECAY_DATE":null,"EPOCH":"2023-03-25T18:45:39.404448","ARG_OF_PERICENTER":"268.2068","ELEMENT_SET_NO":"999","OBJECT_ID":"2021-082F","LAUNCH_DATE":"2021-09-14","TLE_LINE2":"2 49135  69.9989  97.2854 0002867 268.2068  91.8762 14.98326302 85211","MEAN_MOTION_DDOT":"0.0000000000000","EPHEMERIS_TYPE":"0","MEAN_ANOMALY":"91.8762","OBJECT_NAME":"STARLINK-3073","COUNTRY_CODE":"US","SEMIMAJOR_AXIS":"6950.204","NORAD_CAT_ID":"49135","CENTER_NAME":"EARTH","PERIAPSIS":"570.077","RCS_SIZE":"LARGE","FILE":"3871104","CLASSIFICATION_TYPE":"U","MEAN_MOTION":"14.98326302","TIME_SYSTEM":"UTC","MEAN_ELEMENT_THEORY":"SGP4","BSTAR":"0.00000640130000","REV_AT_EPOCH":"8521","SITE":"AFWTR"}];
